SL-14 R/B               
1 18749U 88001B   21362.60415590  .00000229  00000+0  25005-4 0  9998
2 18749  82.5134 193.6137 0017266 254.3122 164.6926 14.83298510814755
COSMOS 1933             
1 18958U 88020A   21362.36464478  .00000811  00000+0  56396-4 0  9997
2 18958  82.5296 305.7408 0012841  54.5003 305.7419 15.04126527819083
SL-3 R/B                
1 19046U 88032B   21362.60274061  .00000969  00000+0  74858-4 0  9990
2 19046  97.3898   4.2338 0039355 101.1360 259.4294 15.03162430820946
SL-16 R/B               
1 19120U 88039B   21362.60547816 -.00000131  00000+0 -39599-4 0  9997
2 19120  71.0157  66.9930 0021662 176.1367 183.9929 14.19230637740982
COSMOS 1953             
1 19210U 88050A   21362.61796796  .00001124  00000+0  73912-4 0  9992
2 19210  82.5151 226.8524 0013737  17.7115 342.4588 15.06558805805830
SL-8 R/B                
1 19257U 88053B   21362.62747307  .00000130  00000+0  52182-4 0  9993
2 19257  74.0491  52.7515 0021749 254.5533 217.0068 14.37545541756355
COSMOS 1975             
1 19573U 88093A   21362.60173147  .00001507  00000+0  10270-3 0  9991
2 19573  82.5194 182.3884 0014993  58.5803 301.6887 15.05469561787574
SL-14 R/B               
1 19574U 88093B   21362.57864514  .00000212  00000+0  22738-4 0  9998
2 19574  82.5318  37.1886 0022920  60.4756  54.1246 14.83410473773757
SL-16 R/B               
1 19650U 88102B   21362.55761765  .00000241  00000+0  14664-3 0  9996
2 19650  70.9992 134.2145 0014673 192.1395 167.9376 14.15814449710019
INTERCOSMOS 24          
1 20261U 89080A   21362.53774289  .00000446  00000+0  13324-3 0  9994
2 20261  82.6021  18.4208 1201340 237.6423 110.2853 12.56244890474199
SL-14 R/B               
1 20262U 89080C   21362.56751795  .00000108  00000+0  22890-4 0  9999
2 20262  82.5946  75.7842 1237468  82.2678 291.6818 12.49004372468785
DELTA 2 R/B(1)          
1 20303U 89085B   21362.53859303  .00009270  00000+0  27041-3 0  9992
2 20303  35.6400  90.6906 0087985 118.8499 242.1094 15.30829947754214
DELTA 1 R/B             
1 20323U 89089B   21362.59140402  .00000153  00000+0  49004-4 0  9992
2 20323  97.1082  66.5124 0070161 272.2705  87.0459 14.48444215673807
ARIANE 40 R/B           
1 20443U 90005H   21362.20216885  .00000094  00000+0  45260-4 0  9996
2 20443  98.5072  66.8672 0011455 115.5253 244.7120 14.38163557672423
DELTA 2 R/B(1)          
1 20453U 90008B   21362.57426938  .00002784  00000+0  15084-3 0  9990
2 20453  35.6239 195.2925 0274849 298.0081  59.3081 14.87477084694431
COSMOS 2058             
1 20465U 90010A   21362.34618028  .00001270  00000+0  10395-3 0  9993
2 20465  82.4898  95.4197 0016729 114.9630 245.3333 14.98409638712007
SL-14 R/B               
1 20466U 90010B   21362.20530743  .00000203  00000+0  22948-4 0  9999
2 20466  82.5036 263.8326 0019235 304.5086  55.4311 14.81460867701451
SL-14 R/B               
1 20511U 90018B   21362.62817660  .00000181  00000+0  20761-4 0  9996
2 20511  82.5225 212.3249 0018972  84.4743 328.1952 14.80113890695820
HST                     
1 20580U 90037B   21362.07769247  .00001578  00000+0  83997-4 0  9990
2 20580  28.4689 223.7126 0002613 352.1173 138.3322 15.09911070540285
SL-16 R/B               
1 20625U 90046B   21362.17842405 -.00000094  00000+0 -24066-4 0  9995
2 20625  70.9989 275.4366 0012257 118.1327 242.1036 14.14674021631886
COSMOS 2084             
1 20663U 90055A   21362.60453325  .00000370  00000+0  50953-4 0  9993
2 20663  62.7937 100.7684 0098245  31.4972 329.1952 14.92417040706795
SL-6 R/B(2)             
1 20666U 90055D   21362.49654765  .00000714  00000+0  77933-4 0  9993
2 20666  62.7847  16.1184 0119214  55.4528 305.7749 14.92673106708733
SL-8 R/B                
1 20775U 90078B   21362.53379951  .00005990  00000+0  29037-3 0  9997
2 20775  82.9259 124.7556 0561578 259.6248  94.1212 14.37009839585951
SL-8 R/B                
1 21088U 91006B   21362.60337978  .00000038  00000+0  22871-4 0  9996
2 21088  82.9421 229.4803 0022879   8.8366  49.5831 13.77191860553178
OKEAN-3                 
1 21397U 91039A   21362.51182950  .00000932  00000+0  86307-4 0  9990
2 21397  82.5213   5.1741 0019351  97.8176 262.5242 14.93266531635669
COSMOS 2151             
1 21422U 91042A   21362.36534376  .00000763  00000+0  71997-4 0  9990
2 21422  82.5010 110.7530 0014651 160.2472 199.9318 14.92374864634163
SL-14 R/B               
1 21423U 91042B   21362.59020397  .00000191  00000+0  22271-4 0  9995
2 21423  82.4934 214.2971 0016486 224.0611 135.9289 14.79862848626357
ERS-1                   
1 21574U 91050A   21362.51298675  .00000226  00000+0  89296-4 0  9998
2 21574  98.6753 324.4839 0033941  66.2525 294.2215 14.37843332595459
ARIANE 40 R/B           
1 21610U 91050F   21362.18379799  .00000114  00000+0  49097-4 0  9990
2 21610  98.4038  69.8619 0003677  39.5142  13.4197 14.40988201598161
INTERCOSMOS 25          
1 21819U 91086A   21361.75529181  .00000867  00000+0  17072-3 0  9996
2 21819  82.5821 151.7138 1514952 162.0391 204.0878 12.05454393311543
SL-8 R/B                
1 21876U 92008B   21362.41071882  .00000107  00000+0  94626-4 0  9996
2 21876  82.9269 326.9578 0036190  93.1869  17.4896 13.75693083498727
SL-8 R/B                
1 21938U 92020B   21362.56884559  .00000133  00000+0  12291-3 0  9994
2 21938  82.9296 211.4559 0028038 253.1982 162.0947 13.75291351490525
COSMOS 2219             
1 22219U 92076A   21362.36044982 -.00000147  00000+0 -52687-4 0  9995
2 22219  71.0591 340.1395 0017258  13.6510 346.5076 14.13666683501792
SL-16 R/B               
1 22220U 92076B   21362.59516962  .00000171  00000+0  10962-3 0  9998
2 22220  70.9991 174.5422 0015208 270.3521 158.8558 14.16482551504855
COSMOS 2221             
1 22236U 92080A   21362.29416024  .00000760  00000+0  79650-4 0  9999
2 22236  82.5084 295.5130 0014998 266.6485  93.3016 14.88184297552373
SL-16 R/B               
1 22285U 92093B   21362.38553601 -.00000118  00000+0 -36378-4 0  9999
2 22285  71.0225 339.9042 0002478 156.7338 203.3897 14.15074027496363
COSMOS 2228             
1 22286U 92094A   21362.16343210  .00000702  00000+0  72728-4 0  9996
2 22286  82.5204 252.5420 0021860  28.6313 331.6099 14.88406728547547
SL-16 R/B               
1 22566U 93016B   21362.58662661  .00000055  00000+0  52917-4 0  9991
2 22566  71.0056 192.0666 0009004 145.6043 214.5664 14.14982233485426
COSMOS 2242             
1 22626U 93024A   21362.26424646  .00000738  00000+0  77024-4 0  9995
2 22626  82.5222 280.8083 0019675  29.2319 330.9995 14.88251974551945
SL-16 R/B               
1 22803U 93059B   21362.42072600 -.00000128  00000+0 -39771-4 0  9999
2 22803  70.9902   1.2684 0016356  16.8569 343.3094 14.16846445462473
ARIANE 40 R/B           
1 22830U 93061H   21362.13649468  .00000059  00000+0  39160-4 0  9995
2 22830  98.6894  60.1024 0011869 121.1642 239.0707 14.31505216474759
COSMOS 2278             
1 23087U 94023A   21362.60875921 -.00000155  00000+0 -56701-4 0  9995
2 23087  71.0542 138.8933 0010298 222.3923 137.6405 14.13848591428227
SL-16 R/B               
1 23088U 94023B   21362.56057568 -.00000285  00000+0 -12350-3 0  9995
2 23088  71.0006  47.5809 0000991 144.8521 215.2667 14.14697685429380
SL-16 R/B               
1 23343U 94074B   21362.61011160  .00000176  00000+0  32233-4 0  9999
2 23343  97.9204  53.9936 0007716 139.8306 340.9274 14.76930492460941
SL-16 R/B               
1 23405U 94077B   21362.35811949 -.00000293  00000+0 -12616-3 0  9999
2 23405  70.9833 335.2677 0004453 301.0532  59.0154 14.15247140399418
ERS-2                   
1 23560U 95021A   21362.57913101  .00004482  00000+0  18470-3 0  9994
2 23560  98.5232 239.5036 0004638  70.9760 289.1977 15.24728124427265
ARIANE 40+ R/B          
1 23561U 95021B   21362.61154910  .00000129  00000+0  57414-4 0  9991
2 23561  98.6496  54.0352 0007505  41.9091  81.7920 14.38072310398939
SL-16 R/B               
1 23705U 95058B   21362.56596108 -.00000179  00000+0 -67383-4 0  9997
2 23705  71.0209 155.8472 0014716 290.7250  69.2295 14.15158319351071
SL-16 R/B               
1 24298U 96051B   21362.56228233 -.00000030  00000+0  10209-4 0  9990
2 24298  70.8189 171.4336 0019097 244.3857 115.5290 14.12403360305302
ORBVIEW 2 (SEASTAR)     
1 24883U 97037A   21362.31286325  .00000108  00000+0  55011-4 0  9999
2 24883  98.6616 120.3628 0001413 240.9609 119.1434 14.33660345288785
SL-16 R/B               
1 25400U 98043G   21362.44256230  .00000013  00000+0  23942-4 0  9992
2 25400  98.6587 295.5746 0010528 141.7477 218.4451 14.25491329220651
SL-16 R/B               
1 25407U 98045B   21362.61203189  .00000014  00000+0  31247-4 0  9993
2 25407  71.0105 162.4272 0008631 216.1602 143.8939 14.15850115210229
ISS (ZARYA)             
1 25544U 98067A   21362.71586690  .00005799  00000+0  11034-3 0  9997
2 25544  51.6440 100.7852 0004684 334.3978 177.5967 15.49778287318747
CZ-4B R/B               
1 25732U 99025C   21362.59911894  .00000073  00000+0  57547-4 0  9995
2 25732  98.8793  39.2581 0038141  56.5922  94.8821 14.17708898171047
OKEAN-O                 
1 25860U 99039A   21362.58544066  .00000306  00000+0  51120-4 0  9994
2 25860  98.1624  35.7725 0000899 109.9768 250.1538 14.76802123208039
SL-16 R/B               
1 25861U 99039B   21362.57535608  .00000233  00000+0  39221-4 0  9993
2 25861  98.1941  21.6104 0016071 157.7851 315.5608 14.78697687210249
DELTA 2 R/B             
1 25876U 99041E   21362.15728970  .00000232  00000+0  79723-4 0  9992
2 25876  51.7644 264.3385 0530967 173.7944 186.9917 14.04699835147140
HELIOS 1B               
1 25977U 99064A   21362.53099495  .00000310  00000+0  45653-4 0  9996
2 25977  98.3202 184.8199 0001484  36.2569 323.8743 14.82626034457950
TERRA                   
1 25994U 99068A   21362.57365241  .00000212  00000+0  56880-4 0  9993
2 25994  98.1582  73.2477 0001375  97.7950  36.7503 14.57140353171610
